{
  "type": "FeatureCollection",
  "features": [
    {
      "type": "Feature",
      "properties": {
        "norad_id": 33731,
        "name": "FENGYUN 1C DEB",
        "group": "fengyun-1c-debris",
        "lat": 42.06449227481044,
        "lon": -160.39615793701773,
        "alt_km": 899.1895322930923,
        "timestamp": "2025-12-14T16:47:40.970692+00:00",
        "meta_object_name": "FENGYUN 1C DEB",
        "meta_object_id": "1999-025DHU",
        "meta_epoch": "2025-12-12T07:21:42.504480",
        "meta_mean_motion": 13.95336601,
        "meta_eccentricity": 0.01289523,
        "meta_inclination": 99.445,
        "meta_ra_of_asc_node": 8.5135,
        "meta_arg_of_pericenter": 57.2943,
        "meta_mean_anomaly": 304.0576,
        "meta_ephemeris_type": 0,
        "meta_classification_type": "U",
        "meta_norad_cat_id": 33731,
        "meta_element_set_no": 999,
        "meta_rev_at_epoch": 90443,
        "meta_bstar": 0.0016610321,
        "meta_mean_motion_dot": 2.365e-05,
        "meta_mean_motion_ddot": 0,
        "tle_line1": "1 33731U 99025DHU 25346.30674195  .00002365  00000+0  16610-2 0  9998",
        "tle_line2": "2 33731  99.4450   8.5135 0128952  57.2943 304.0576 13.95336601904431"
      },
      "geometry": {
        "type": "Point",
        "coordinates": [
          -160.39615793701773,
          42.06449227481044
        ]
      }
    },
    {
      "type": "Feature",
      "properties": {
        "norad_id": 33733,
        "name": "FENGYUN 1C DEB",
        "group": "fengyun-1c-debris",
        "lat": 3.8383440752932105,
        "lon": 73.50139555279453,
        "alt_km": 845.1945550949076,
        "timestamp": "2025-12-14T16:47:40.970702+00:00",
        "meta_object_name": "FENGYUN 1C DEB",
        "meta_object_id": "1999-025DHW",
        "meta_epoch": "2025-12-08T04:50:49.402752",
        "meta_mean_motion": 14.30867233,
        "meta_eccentricity": 0.00809024,
        "meta_inclination": 99.099,
        "meta_ra_of_asc_node": 67.3183,
        "meta_arg_of_pericenter": 183.3026,
        "meta_mean_anomaly": 206.7882,
        "meta_ephemeris_type": 0,
        "meta_classification_type": "U",
        "meta_norad_cat_id": 33733,
        "meta_element_set_no": 999,
        "meta_rev_at_epoch": 90383,
        "meta_bstar": 0.0048281586,
        "meta_mean_motion_dot": 0.00013108,
        "meta_mean_motion_ddot": 0,
        "tle_line1": "1 33733U 99025DHW 25342.20196068  .00013108  00000+0  48282-2 0  9990",
        "tle_line2": "2 33733  99.0990  67.3183 0080902 183.3026 206.7882 14.30867233903830"
      },
      "geometry": {
        "type": "Point",
        "coordinates": [
          73.50139555279453,
          3.8383440752932105
        ]
      }
    },
    {
      "type": "Feature",
      "properties": {
        "norad_id": 33737,
        "name": "FENGYUN 1C DEB",
        "group": "fengyun-1c-debris",
        "lat": 3.0418984208954156,
        "lon": -177.9979500823353,
        "alt_km": 877.5747628285617,
        "timestamp": "2025-12-14T16:47:40.970713+00:00",
        "meta_object_name": "FENGYUN 1C DEB",
        "meta_object_id": "1999-025DJA",
        "meta_epoch": "2025-12-14T00:24:30.756096",
        "meta_mean_motion": 14.0300495,
        "meta_eccentricity": 0.01283969,
        "meta_inclination": 98.3378,
        "meta_ra_of_asc_node": 181.8228,
        "meta_arg_of_pericenter": 279.5077,
        "meta_mean_anomaly": 235.6642,
        "meta_ephemeris_type": 0,
        "meta_classification_type": "U",
        "meta_norad_cat_id": 33737,
        "meta_element_set_no": 999,
        "meta_rev_at_epoch": 88758,
        "meta_bstar": 0.0015530209,
        "meta_mean_motion_dot": 2.554e-05,
        "meta_mean_motion_ddot": 0,
        "tle_line1": "1 33737U 99025DJA 25348.01702264  .00002554  00000+0  15530-2 0  9993",
        "tle_line2": "2 33737  98.3378 181.8228 0128396 279.5077 235.6642 14.03004950887589"
      },
      "geometry": {
        "type": "Point",
        "coordinates": [
          -177.9979500823353,
          3.0418984208954156
        ]
      }
    },
    {
      "type": "Feature",
      "properties": {
        "norad_id": 33738,
        "name": "FENGYUN 1C DEB",
        "group": "fengyun-1c-debris",
        "lat": -72.764873415837,
        "lon": -162.57427271364008,
        "alt_km": 969.5202602286099,
        "timestamp": "2025-12-14T16:47:40.970723+00:00",
        "meta_object_name": "FENGYUN 1C DEB",
        "meta_object_id": "1999-025DJB",
        "meta_epoch": "2025-12-13T23:15:53.702784",
        "meta_mean_motion": 13.99533544,
        "meta_eccentricity": 0.01846659,
        "meta_inclination": 99.1518,
        "meta_ra_of_asc_node": 48.003,
        "meta_arg_of_pericenter": 18.0671,
        "meta_mean_anomaly": 161.0435,
        "meta_ephemeris_type": 0,
        "meta_classification_type": "U",
        "meta_norad_cat_id": 33738,
        "meta_element_set_no": 999,
        "meta_rev_at_epoch": 89253,
        "meta_bstar": 0.00063393038,
        "meta_mean_motion_dot": 1.026e-05,
        "meta_mean_motion_ddot": 0,
        "tle_line1": "1 33738U 99025DJB 25347.96937156  .00001026  00000+0  63393-3 0  9991",
        "tle_line2": "2 33738  99.1518  48.0030 0184665  18.0671 161.0435 13.99533544892530"
      },
      "geometry": {
        "type": "Point",
        "coordinates": [
          -162.57427271364008,
          -72.764873415837
        ]
      }
    },
    {
      "type": "Feature",
      "properties": {
        "norad_id": 33740,
        "name": "FENGYUN 1C DEB",
        "group": "fengyun-1c-debris",
        "lat": 24.984115527545125,
        "lon": -2.5348285319662986,
        "alt_km": 850.8564733370886,
        "timestamp": "2025-12-14T16:47:40.970732+00:00",
        "meta_object_name": "FENGYUN 1C DEB",
        "meta_object_id": "1999-025DJD",
        "meta_epoch": "2025-12-13T06:40:10.991136",
        "meta_mean_motion": 14.12323086,
        "meta_eccentricity": 0.0002062,
        "meta_inclination": 98.6874,
        "meta_ra_of_asc_node": 0.1725,
        "meta_arg_of_pericenter": 128.1164,
        "meta_mean_anomaly": 232.0195,
        "meta_ephemeris_type": 0,
        "meta_classification_type": "U",
        "meta_norad_cat_id": 33740,
        "meta_element_set_no": 999,
        "meta_rev_at_epoch": 90154,
        "meta_bstar": 0.00021078194,
        "meta_mean_motion_dot": 3.46e-06,
        "meta_mean_motion_ddot": 0,
        "tle_line1": "1 33740U 99025DJD 25347.27790499  .00000346  00000+0  21078-3 0  9993",
        "tle_line2": "2 33740  98.6874   0.1725 0002062 128.1164 232.0195 14.12323086901540"
      },
      "geometry": {
        "type": "Point",
        "coordinates": [
          -2.5348285319662986,
          24.984115527545125
        ]
      }
    },
    {
      "type": "Feature",
      "properties": {
        "norad_id": 33741,
        "name": "FENGYUN 1C DEB",
        "group": "fengyun-1c-debris",
        "lat": 45.06342200554355,
        "lon": -106.48326194751958,
        "alt_km": 781.8577899749698,
        "timestamp": "2025-12-14T16:47:40.970742+00:00",
        "meta_object_name": "FENGYUN 1C DEB",
        "meta_object_id": "1999-025DJE",
        "meta_epoch": "2025-12-11T17:02:33.884160",
        "meta_mean_motion": 14.09800976,
        "meta_eccentricity": 0.01275257,
        "meta_inclination": 98.5648,
        "meta_ra_of_asc_node": 259.3576,
        "meta_arg_of_pericenter": 91.2636,
        "meta_mean_anomaly": 270.3148,
        "meta_ephemeris_type": 0,
        "meta_classification_type": "U",
        "meta_norad_cat_id": 33741,
        "meta_element_set_no": 999,
        "meta_rev_at_epoch": 56848,
        "meta_bstar": 0.0031597361,
        "meta_mean_motion_dot": 5.952e-05,
        "meta_mean_motion_ddot": 0,
        "tle_line1": "1 33741U 99025DJE 25345.71011440  .00005952  00000+0  31597-2 0  9997",
        "tle_line2": "2 33741  98.5648 259.3576 0127525  91.2636 270.3148 14.09800976568486"
      },
      "geometry": {
        "type": "Point",
        "coordinates": [
          -106.48326194751958,
          45.06342200554355
        ]
      }
    },
    {
      "type": "Feature",
      "properties": {
        "norad_id": 33745,
        "name": "FENGYUN 1C DEB",
        "group": "fengyun-1c-debris",
        "lat": 44.49917837486531,
        "lon": -144.99542418681807,
        "alt_km": 836.317751396803,
        "timestamp": "2025-12-14T16:47:40.970752+00:00",
        "meta_object_name": "FENGYUN 1C DEB",
        "meta_object_id": "1999-025DJJ",
        "meta_epoch": "2025-12-13T01:19:37.273728",
        "meta_mean_motion": 14.22320724,
        "meta_eccentricity": 0.00541028,
        "meta_inclination": 99.1146,
        "meta_ra_of_asc_node": 24.2285,
        "meta_arg_of_pericenter": 265.2923,
        "meta_mean_anomaly": 94.2073,
        "meta_ephemeris_type": 0,
        "meta_classification_type": "U",
        "meta_norad_cat_id": 33745,
        "meta_element_set_no": 999,
        "meta_rev_at_epoch": 66006,
        "meta_bstar": 0.0019074216,
        "meta_mean_motion_dot": 4.259e-05,
        "meta_mean_motion_ddot": 0,
        "tle_line1": "1 33745U 99025DJJ 25347.05529252  .00004259  00000+0  19074-2 0  9990",
        "tle_line2": "2 33745  99.1146  24.2285 0054102 265.2923  94.2073 14.22320724660068"
      },
      "geometry": {
        "type": "Point",
        "coordinates": [
          -144.99542418681807,
          44.49917837486531
        ]
      }
    }
  ]
}